{"type": "FeatureCollection", "features": [{"type": "Feature", "properties": {"abstract": "2691030", "survey": "D&W RR CO", "label": "A-1030"}, "geometry": {"type": "Polygon", "coordinates": [[[-100.290053258793, 33.8096497826891], [-100.290070838142, 33.8024007010577], [-100.29897621222, 33.8023857927723], [-100.298953754071, 33.809689817469], [-100.290053258793, 33.8096497826891]]]}}, {"type": "Feature", "properties": {"abstract": "2691077", "survey": "TT RR CO", "label": "A-1077"}, "geometry": {"type": "Polygon", "coordinates": [[[-100.31699524275, 33.7697385219221], [-100.31701922936, 33.7661796968562], [-100.299408170218, 33.7660777071124], [-100.299776726529, 33.7514290877633], [-100.299838151637, 33.750090032697], [-100.299838182206, 33.7500893672109], [-100.299904166854, 33.7486431403238], [-100.306383093519, 33.7486894615264], [-100.306361427499, 33.7500894204221], [-100.306361407735, 33.7500909582342], [-100.30627408673, 33.755746239184], [-100.318484813586, 33.7558225952941], [-100.318455447281, 33.7697569914135], [-100.31699524275, 33.7697385219221]]]}}, {"type": "Feature", "properties": {"abstract": "2691160", "survey": "MASON, A", "label": "A-1160"}, "geometry": {"type": "Polygon", "coordinates": [[[-100.318484813586, 33.7558225952941], [-100.30627408673, 33.755746239184], [-100.306361407735, 33.7500909582342], [-100.306361427499, 33.7500894204221], [-100.306383093519, 33.7486894615264], [-100.314292810384, 33.7486565832713], [-100.314327792015, 33.7446705609895], [-100.324312654492, 33.7446678815724], [-100.324333258754, 33.7500892562708], [-100.324333262364, 33.7500901969443], [-100.324354955531, 33.7558228233321], [-100.318484813586, 33.7558225952941]]]}}, {"type": "Feature", "properties": {"abstract": "2691212", "survey": "MASON, A", "label": "A-1212"}, "geometry": {"type": "Polygon", "coordinates": [[[-100.299904166854, 33.7486431403238], [-100.300012677036, 33.73973992416], [-100.306604294289, 33.7397585334577], [-100.30645855868, 33.7446587318282], [-100.314327792015, 33.7446705609895], [-100.314292810384, 33.7486565832713], [-100.306383093519, 33.7486894615264], [-100.299904166854, 33.7486431403238]]]}}, {"type": "Feature", "properties": {"abstract": "26913", "survey": "BURLESON, J", "label": "A-13"}, "geometry": {"type": "Polygon", "coordinates": [[[-100.327746522331, 33.8108654262194], [-100.300064487849, 33.8105606521949], [-100.298958141042, 33.8105590228892], [-100.298958114881, 33.8105535227388], [-100.298953754071, 33.809689817469], [-100.29897621222, 33.8023857927723], [-100.299025355121, 33.7951970102707], [-100.299182289432, 33.7806523062994], [-100.31682311008, 33.7807123800515], [-100.335393294411, 33.7808282049167], [-100.335367742815, 33.7973960544267], [-100.335257868708, 33.8108906649921], [-100.327746522331, 33.8108654262194]]]}}, {"type": "Feature", "properties": {"abstract": "269255", "survey": "MASSEY, J V", "label": "A-255"}, "geometry": {"type": "Polygon", "coordinates": [[[-100.290121388334, 33.7951741576049], [-100.281259336036, 33.795143061659], [-100.281353960758, 33.780560076413], [-100.299142722107, 33.7806521069035], [-100.299182289432, 33.7806523062994], [-100.299025355121, 33.7951970102707], [-100.290121388334, 33.7951741576049]]]}}, {"type": "Feature", "properties": {"abstract": "269309", "survey": "I&GN RR CO", "label": "A-309"}, "geometry": {"type": "Polygon", "coordinates": [[[-100.335393294411, 33.7808282049167], [-100.31682311008, 33.7807123800515], [-100.31699524275, 33.7697385219221], [-100.318455447281, 33.7697569914135], [-100.324600288731, 33.7697744054255], [-100.324593322165, 33.7708366201702], [-100.341793367836, 33.7709260324607], [-100.341785547064, 33.7808387188308], [-100.335393294411, 33.7808282049167]]]}}, {"type": "Feature", "properties": {"abstract": "269312", "survey": "I&GN RR CO", "label": "A-312"}, "geometry": {"type": "Polygon", "coordinates": [[[-100.299182289432, 33.7806523062994], [-100.299142722107, 33.7806521069035], [-100.299408170218, 33.7660777071124], [-100.31701922936, 33.7661796968562], [-100.31699524275, 33.7697385219221], [-100.31682311008, 33.7807123800515], [-100.299182289432, 33.7806523062994]]]}}, {"type": "Feature", "properties": {"abstract": "269320", "survey": "TT RR CO", "label": "A-320"}, "geometry": {"type": "Polygon", "coordinates": [[[-100.318455447281, 33.7697569914135], [-100.318484813586, 33.7558225952941], [-100.324354955531, 33.7558228233321], [-100.324416739102, 33.7603235151296], [-100.341818028168, 33.7604460783181], [-100.341793367836, 33.7709260324607], [-100.324593322165, 33.7708366201702], [-100.324600288731, 33.7697744054255], [-100.318455447281, 33.7697569914135]]]}}, {"type": "Feature", "properties": {"abstract": "26990", "survey": "GROGAN, HRS J", "label": "A-90"}, "geometry": {"type": "Polygon", "coordinates": [[[-100.346857899297, 33.797501866094], [-100.337776670763, 33.7974256709951], [-100.335367742815, 33.7973960544267], [-100.335393294411, 33.7808282049167], [-100.341785547064, 33.7808387188308], [-100.355228814819, 33.7809016789397], [-100.355053313717, 33.7975489039072], [-100.346857899297, 33.797501866094]]]}}]}